[{"OBJECT_NAME":"NOAA 1","OBJECT_ID":"1970-106A","EPOCH":"2026-03-14T20:36:04.857120","MEAN_MOTION":12.54049319,"ECCENTRICITY":0.00318376,"INCLINATION":101.3502,"RA_OF_ASC_NODE":112.6702,"ARG_OF_PERICENTER":170.7777,"MEAN_ANOMALY":2.3334,"EPHEMERIS_TYPE":0,"CLASSIFICATION_TYPE":"U","NORAD_CAT_ID":4793,"ELEMENT_SET_NO":999,"REV_AT_EPOCH":52886,"BSTAR":9.8758399e-5,"MEAN_MOTION_DOT":-2.7e-7,"MEAN_MOTION_DDOT":0},{"OBJECT_NAME":"NOAA 2 (ITOS-D)","OBJECT_ID":"1972-082A","EPOCH":"2026-03-14T22:12:48.574944","MEAN_MOTION":12.53211984,"ECCENTRICITY":0.00039181,"INCLINATION":102.0159,"RA_OF_ASC_NODE":91.44,"ARG_OF_PERICENTER":355.1032,"MEAN_ANOMALY":67.9103,"EPHEMERIS_TYPE":0,"CLASSIFICATION_TYPE":"U","NORAD_CAT_ID":6235,"ELEMENT_SET_NO":999,"REV_AT_EPOCH":44314,"BSTAR":0.00021306799,"MEAN_MOTION_DOT":-1.3e-7,"MEAN_MOTION_DDOT":0},{"OBJECT_NAME":"NOAA 3","OBJECT_ID":"1973-086A","EPOCH":"2026-03-14T21:55:46.792128","MEAN_MOTION":12.40391872,"ECCENTRICITY":0.00061861,"INCLINATION":102.2904,"RA_OF_ASC_NODE":86.9431,"ARG_OF_PERICENTER":298.8304,"MEAN_ANOMALY":121.4987,"EPHEMERIS_TYPE":0,"CLASSIFICATION_TYPE":"U","NORAD_CAT_ID":6920,"ELEMENT_SET_NO":999,"REV_AT_EPOCH":37021,"BSTAR":0.00019244869,"MEAN_MOTION_DOT":-2.1e-7,"MEAN_MOTION_DDOT":0},{"OBJECT_NAME":"NOAA 4","OBJECT_ID":"1974-089A","EPOCH":"2026-03-14T21:43:06.487680","MEAN_MOTION":12.53201812,"ECCENTRICITY":0.00090537,"INCLINATION":102.007,"RA_OF_ASC_NODE":85.6921,"ARG_OF_PERICENTER":19.0243,"MEAN_ANOMALY":42.5845,"EPHEMERIS_TYPE":0,"CLASSIFICATION_TYPE":"U","NORAD_CAT_ID":7529,"ELEMENT_SET_NO":999,"REV_AT_EPOCH":34771,"BSTAR":0.00020782456,"MEAN_MOTION_DOT":-1.3e-7,"MEAN_MOTION_DDOT":0},{"OBJECT_NAME":"NOAA 5","OBJECT_ID":"1976-077A","EPOCH":"2026-03-14T22:11:09.742848","MEAN_MOTION":12.37828611,"ECCENTRICITY":0.00098819,"INCLINATION":102.2965,"RA_OF_ASC_NODE":59.4586,"ARG_OF_PERICENTER":150.706,"MEAN_ANOMALY":237.0197,"EPHEMERIS_TYPE":0,"CLASSIFICATION_TYPE":"U","NORAD_CAT_ID":9057,"ELEMENT_SET_NO":999,"REV_AT_EPOCH":24281,"BSTAR":0.0002113103,"MEAN_MOTION_DOT":-1.9e-7,"MEAN_MOTION_DDOT":0},{"OBJECT_NAME":"TIROS N","OBJECT_ID":"1978-096A","EPOCH":"2026-03-14T19:36:08.671392","MEAN_MOTION":14.19340945,"ECCENTRICITY":0.00110141,"INCLINATION":98.4626,"RA_OF_ASC_NODE":99.1091,"ARG_OF_PERICENTER":150.8554,"MEAN_ANOMALY":209.3239,"EPHEMERIS_TYPE":0,"CLASSIFICATION_TYPE":"U","NORAD_CAT_ID":11060,"ELEMENT_SET_NO":999,"REV_AT_EPOCH":66536,"BSTAR":0.00011907354,"MEAN_MOTION_DOT":2.09e-6,"MEAN_MOTION_DDOT":0},{"OBJECT_NAME":"NOAA 6","OBJECT_ID":"1979-057A","EPOCH":"2026-03-14T18:42:26.232192","MEAN_MOTION":14.35437756,"ECCENTRICITY":0.00100387,"INCLINATION":98.5744,"RA_OF_ASC_NODE":103.9022,"ARG_OF_PERICENTER":171.745,"MEAN_ANOMALY":188.3902,"EPHEMERIS_TYPE":0,"CLASSIFICATION_TYPE":"U","NORAD_CAT_ID":11416,"ELEMENT_SET_NO":999,"REV_AT_EPOCH":43741,"BSTAR":0.00013138256,"MEAN_MOTION_DOT":3.33e-6,"MEAN_MOTION_DDOT":0},{"OBJECT_NAME":"NOAA 7","OBJECT_ID":"1981-059A","EPOCH":"2026-03-14T21:12:19.113984","MEAN_MOTION":14.17774592,"ECCENTRICITY":0.00116147,"INCLINATION":98.805,"RA_OF_ASC_NODE":141.8904,"ARG_OF_PERICENTER":173.019,"MEAN_ANOMALY":187.1149,"EPHEMERIS_TYPE":0,"CLASSIFICATION_TYPE":"U","NORAD_CAT_ID":12553,"ELEMENT_SET_NO":999,"REV_AT_EPOCH":31138,"BSTAR":5.1200042e-5,"MEAN_MOTION_DOT":6.0e-7,"MEAN_MOTION_DDOT":0},{"OBJECT_NAME":"NOAA 8","OBJECT_ID":"1983-022A","EPOCH":"2026-03-14T22:37:47.564832","MEAN_MOTION":14.29769193,"ECCENTRICITY":0.00149539,"INCLINATION":98.737,"RA_OF_ASC_NODE":86.7578,"ARG_OF_PERICENTER":170.2141,"MEAN_ANOMALY":189.9335,"EPHEMERIS_TYPE":0,"CLASSIFICATION_TYPE":"U","NORAD_CAT_ID":13923,"ELEMENT_SET_NO":999,"REV_AT_EPOCH":23760,"BSTAR":8.7601659e-5,"MEAN_MOTION_DOT":1.8e-6,"MEAN_MOTION_DDOT":0},{"OBJECT_NAME":"NOAA 9","OBJECT_ID":"1984-123A","EPOCH":"2026-03-14T22:37:22.501920","MEAN_MOTION":14.17040882,"ECCENTRICITY":0.00137144,"INCLINATION":99.1089,"RA_OF_ASC_NODE":98.3561,"ARG_OF_PERICENTER":255.7803,"MEAN_ANOMALY":170.8031,"EPHEMERIS_TYPE":0,"CLASSIFICATION_TYPE":"U","NORAD_CAT_ID":15427,"ELEMENT_SET_NO":999,"REV_AT_EPOCH":13007,"BSTAR":8.4843841e-5,"MEAN_MOTION_DOT":1.24e-6,"MEAN_MOTION_DDOT":0},{"OBJECT_NAME":"NOAA 10","OBJECT_ID":"1986-073A","EPOCH":"2026-03-14T22:14:21.581952","MEAN_MOTION":14.29146875,"ECCENTRICITY":0.00109228,"INCLINATION":98.7003,"RA_OF_ASC_NODE":67.309,"ARG_OF_PERICENTER":272.3449,"MEAN_ANOMALY":107.8331,"EPHEMERIS_TYPE":0,"CLASSIFICATION_TYPE":"U","NORAD_CAT_ID":16969,"ELEMENT_SET_NO":999,"REV_AT_EPOCH":5595,"BSTAR":8.9361992e-5,"MEAN_MOTION_DOT":1.82e-6,"MEAN_MOTION_DDOT":0},{"OBJECT_NAME":"NOAA 11","OBJECT_ID":"1988-089A","EPOCH":"2026-03-14T20:59:41.672832","MEAN_MOTION":14.15822204,"ECCENTRICITY":0.00105085,"INCLINATION":98.6101,"RA_OF_ASC_NODE":22.7404,"ARG_OF_PERICENTER":203.7532,"MEAN_ANOMALY":156.3158,"EPHEMERIS_TYPE":0,"CLASSIFICATION_TYPE":"U","NORAD_CAT_ID":19531,"ELEMENT_SET_NO":999,"REV_AT_EPOCH":93413,"BSTAR":6.0824528e-5,"MEAN_MOTION_DOT":7.7e-7,"MEAN_MOTION_DDOT":0},{"OBJECT_NAME":"NOAA 12","OBJECT_ID":"1991-032A","EPOCH":"2026-03-14T22:38:05.840160","MEAN_MOTION":14.26719586,"ECCENTRICITY":0.00127078,"INCLINATION":98.6159,"RA_OF_ASC_NODE":63.8626,"ARG_OF_PERICENTER":306.9204,"MEAN_ANOMALY":53.0812,"EPHEMERIS_TYPE":0,"CLASSIFICATION_TYPE":"U","NORAD_CAT_ID":21263,"ELEMENT_SET_NO":999,"REV_AT_EPOCH":81152,"BSTAR":7.2357514e-5,"MEAN_MOTION_DOT":1.32e-6,"MEAN_MOTION_DDOT":0},{"OBJECT_NAME":"NOAA 13","OBJECT_ID":"1993-050A","EPOCH":"2026-03-14T19:35:53.890080","MEAN_MOTION":14.13638384,"ECCENTRICITY":0.00102661,"INCLINATION":98.6937,"RA_OF_ASC_NODE":21.4206,"ARG_OF_PERICENTER":43.6534,"MEAN_ANOMALY":316.545,"EPHEMERIS_TYPE":0,"CLASSIFICATION_TYPE":"U","NORAD_CAT_ID":22739,"ELEMENT_SET_NO":999,"REV_AT_EPOCH":68004,"BSTAR":9.0400949e-5,"MEAN_MOTION_DOT":1.28e-6,"MEAN_MOTION_DDOT":0},{"OBJECT_NAME":"NOAA 14","OBJECT_ID":"1994-089A","EPOCH":"2026-03-14T21:58:57.951264","MEAN_MOTION":14.14656674,"ECCENTRICITY":0.00095032,"INCLINATION":98.503,"RA_OF_ASC_NODE":47.8829,"ARG_OF_PERICENTER":1.8292,"MEAN_ANOMALY":358.2916,"EPHEMERIS_TYPE":0,"CLASSIFICATION_TYPE":"U","NORAD_CAT_ID":23455,"ELEMENT_SET_NO":999,"REV_AT_EPOCH":60987,"BSTAR":6.579625e-5,"MEAN_MOTION_DOT":8.5e-7,"MEAN_MOTION_DDOT":0},{"OBJECT_NAME":"NOAA 15","OBJECT_ID":"1998-030A","EPOCH":"2026-03-14T21:17:11.874336","MEAN_MOTION":14.2711488,"ECCENTRICITY":0.00090727,"INCLINATION":98.5157,"RA_OF_ASC_NODE":97.0324,"ARG_OF_PERICENTER":262.8945,"MEAN_ANOMALY":97.1205,"EPHEMERIS_TYPE":0,"CLASSIFICATION_TYPE":"U","NORAD_CAT_ID":25338,"ELEMENT_SET_NO":999,"REV_AT_EPOCH":44784,"BSTAR":8.6224299e-5,"MEAN_MOTION_DOT":1.67e-6,"MEAN_MOTION_DDOT":0},{"OBJECT_NAME":"NOAA 16","OBJECT_ID":"2000-055A","EPOCH":"2026-03-14T21:43:59.943360","MEAN_MOTION":14.1389972,"ECCENTRICITY":0.00098461,"INCLINATION":98.47,"RA_OF_ASC_NODE":93.1364,"ARG_OF_PERICENTER":206.3158,"MEAN_ANOMALY":153.7517,"EPHEMERIS_TYPE":0,"CLASSIFICATION_TYPE":"U","NORAD_CAT_ID":26536,"ELEMENT_SET_NO":999,"REV_AT_EPOCH":61040,"BSTAR":9.1886326e-5,"MEAN_MOTION_DOT":1.33e-6,"MEAN_MOTION_DDOT":0}]
