NOAA 1                  
1 04793U 70106A   26073.85838955 -.00000027  00000+0  98758-4 0  9996
2 04793 101.3502 112.6702 0031837 170.7777   2.3334 12.54049319528866
NOAA 2 (ITOS-D)         
1 06235U 72082A   26073.92556221 -.00000013  00000+0  21307-3 0  9995
2 06235 102.0159  91.4400 0003918 355.1032  67.9103 12.53211984443142
NOAA 3                  
1 06920U 73086A   26073.91373602 -.00000021  00000+0  19245-3 0  9997
2 06920 102.2904  86.9431 0006186 298.8304 121.4987 12.40391872370215
NOAA 4                  
1 07529U 74089A   26073.90493620 -.00000013  00000+0  20782-3 0  9998
2 07529 102.0070  85.6921 0009053  19.0243  42.5845 12.53201812347717
NOAA 5                  
1 09057U 76077A   26073.92441832 -.00000019  00000+0  21131-3 0  9990
2 09057 102.2965  59.4586 0009881 150.7060 237.0197 12.37828611242815
TIROS N                 
1 11060U 78096A   26073.81676703  .00000209  00000+0  11907-3 0  9995
2 11060  98.4626  99.1091 0011014 150.8554 209.3239 14.19340945665363
NOAA 6                  
1 11416U 79057A   26073.77947028  .00000333  00000+0  13138-3 0  9990
2 11416  98.5744 103.9022 0010038 171.7450 188.3902 14.35437756437411
NOAA 7                  
1 12553U 81059A   26073.88355456  .00000060  00000+0  51200-4 0  9998
2 12553  98.8050 141.8904 0011614 173.0190 187.1149 14.17774592311383
NOAA 8                  
1 13923U 83022A   26073.94291163  .00000180  00000+0  87602-4 0  9991
2 13923  98.7370  86.7578 0014953 170.2141 189.9335 14.29769193237600
NOAA 9                  
1 15427U 84123A   26073.94262155  .00000124  00000+0  84844-4 0  9997
2 15427  99.1089  98.3561 0013714 255.7803 170.8031 14.17040882130071
NOAA 10                 
1 16969U 86073A   26073.92663868  .00000182  00000+0  89362-4 0  9993
2 16969  98.7003  67.3090 0010922 272.3449 107.8331 14.29146875 55954
NOAA 11                 
1 19531U 88089A   26073.87478788  .00000077  00000+0  60825-4 0  9995
2 19531  98.6101  22.7404 0010508 203.7532 156.3158 14.15822204934139
NOAA 12                 
1 21263U 91032A   26073.94312315  .00000132  00000+0  72358-4 0  9999
2 21263  98.6159  63.8626 0012707 306.9204  53.0812 14.26719586811521
NOAA 13                 
1 22739U 93050A   26073.81659595  .00000128  00000+0  90401-4 0  9994
2 22739  98.6937  21.4206 0010266  43.6534 316.5450 14.13638384680045
NOAA 14                 
1 23455U 94089A   26073.91594851  .00000085  00000+0  65796-4 0  9998
2 23455  98.5030  47.8829 0009503   1.8292 358.2916 14.14656674609871
NOAA 15                 
1 25338U 98030A   26073.88694299  .00000167  00000+0  86224-4 0  9993
2 25338  98.5157  97.0324 0009072 262.8945  97.1205 14.27114880447844
NOAA 16                 
1 26536U 00055A   26073.90555490  .00000133  00000+0  91886-4 0  9999
2 26536  98.4700  93.1364 0009846 206.3158 153.7517 14.13899720610404
